NORAD_CAT_ID,OBJECT_NAME,OBJECT_TYPE,EPOCH,MEAN_MOTION,ECCENTRICITY,INCLINATION,RA_OF_ASC_NODE,ARG_OF_PERICENTER,MEAN_ANOMALY,BSTAR,MEAN_MOTION_DOT,MEAN_MOTION_DDOT,TLE_LINE0,TLE_LINE1,TLE_LINE2,SEMIMAJOR_AXIS,PERIOD,APOGEE,PERIGEE,DECAYED
55420.0,STARLINK-5604,PAYLOAD,2024-03-17 04:22:48,14.98323969,0.0003025,69.9992,66.1782,268.21,91.8713,9.6816e-05,1.062e-05,0.0,0 STARLINK-5604,1 55420U 23014AF  24077.18251053  .00001062  00000-0  96816-4 0  9994,2 55420  69.9992  66.1782 0003025 268.2100  91.8713 14.98323969 63384,6950.212,96.107,574.179,569.974,0.0
55420.0,STARLINK-5604,PAYLOAD,2024-03-17 09:11:12,14.98330595,0.0003036,69.9991,65.6736,267.4418,92.6394,2.2125e-05,1.71e-06,0.0,0 STARLINK-5604,1 55420U 23014AF  24077.38278853  .00000171  00000-0  22125-4 0  9995,2 55420  69.9991  65.6736 0003036 267.4418  92.6394 14.98330595 64356,6950.191,96.107,574.166,569.946,0.0
55420.0,STARLINK-5604,PAYLOAD,2024-03-17 22:00:17,14.98330578,0.0002981,69.9993,64.3271,266.5377,93.5441,6.11e-06,-2e-07,0.0,0 STARLINK-5604,1 55420U 23014AF  24077.91686863 -.00000020  00000-0  61100-5 0  9999,2 55420  69.9993  64.3271 0002981 266.5377  93.5441 14.98330578 64433,6950.191,96.107,574.128,569.984,0.0
55420.0,STARLINK-5604,PAYLOAD,2024-03-18 04:24:49,14.98321575,0.0002917,69.9996,63.6534,269.5849,90.4976,0.00015625,1.771e-05,0.0,0 STARLINK-5604,1 55420U 23014AF  24078.18390979  .00001771  00000-0  15625-3 0  9991,2 55420  69.9996  63.6534 0002917 269.5849  90.4976 14.98321575 63532,6950.219,96.108,574.111,570.057,0.0
55420.0,STARLINK-5604,PAYLOAD,2024-03-18 09:13:13,14.98332215,0.0002931,69.9995,63.1484,266.158,93.9244,2.7997e-05,2.41e-06,0.0,0 STARLINK-5604,1 55420U 23014AF  24078.38418649  .00000241  00000-0  27997-4 0  9995,2 55420  69.9995  63.1484 0002931 266.1580  93.9244 14.98332215 64508,6950.186,96.107,574.088,570.014,0.0
55420.0,STARLINK-5604,PAYLOAD,2024-03-18 22:02:18,14.98330209,0.00028,69.9998,61.8017,266.2546,93.8292,1.5044e-05,8.7e-07,0.0,0 STARLINK-5604,1 55420U 23014AF  24078.91826758  .00000087  00000-0  15044-4 0  9996,2 55420  69.9998  61.8017 0002800 266.2546  93.8292 14.98330209 64587,6950.192,96.107,574.003,570.111,0.0
55420.0,STARLINK-5604,PAYLOAD,2024-03-19 09:15:13,14.98374953,0.0002501,69.9999,60.6237,269.7549,90.3324,-0.00067268,-8.119e-05,0.0,0 STARLINK-5604,1 55420U 23014AF  24079.38557462 -.00008119  00000-0 -67268-3 0  9991,2 55420  69.9999  60.6237 0002501 269.7549  90.3324 14.98374953 63714,6950.054,96.104,573.657,570.181,0.0
55420.0,STARLINK-5604,PAYLOAD,2024-03-20 01:16:31,14.98372979,0.0002342,70.0039,58.9395,268.7004,91.3887,0.00022577,2.605e-05,0.0,0 STARLINK-5604,1 55420U 23014AF  24080.05314626  .00002605  00000-0  22577-3 0  9996,2 55420  70.0039  58.9395 0002342 268.7004  91.3887 14.98372979 63817,6950.06,96.104,573.553,570.297,0.0
55420.0,STARLINK-5604,PAYLOAD,2024-03-20 07:41:07,14.98323346,0.0002666,70.0004,58.2675,259.2768,100.8091,-0.00012777,-1.617e-05,0.0,0 STARLINK-5604,1 55420U 23014AF  24080.32022241 -.00001617  00000-0 -12777-3 0  9990,2 55420  70.0004  58.2675 0002666 259.2768 100.8091 14.98323346 63855,6950.213,96.107,573.931,570.226,0.0
55420.0,STARLINK-5604,PAYLOAD,2024-03-21 07:43:08,14.98321306,0.0003184,70.0003,55.741,269.9645,90.1149,-0.00022347,-2.758e-05,0.0,0 STARLINK-5604,1 55420U 23014AF  24081.32163003 -.00002758  00000-0 -22347-3 0  9994,2 55420  70.0003  55.7410 0003184 269.9645  90.1149 14.98321306 64008,6950.22,96.108,574.298,569.872,0.0
55420.0,STARLINK-5604,PAYLOAD,2024-03-21 15:43:48,14.98326169,0.0003117,69.9998,54.8979,263.6234,96.457,-0.0001501,-1.883e-05,0.0,0 STARLINK-5604,1 55420U 23014AF  24081.65542589 -.00001883  00000-0 -15010-3 0  9997,2 55420  69.9998  54.8979 0003117 263.6234  96.4570 14.98326169 64053,6950.205,96.107,574.236,569.903,0.0
55420.0,STARLINK-5604,PAYLOAD,2024-03-22 04:32:52,14.98349425,0.0002621,70.0015,53.5528,248.6678,111.4202,-0.00046698,-5.663e-05,0.0,0 STARLINK-5604,1 55420U 23014AF  24082.18949722 -.00005663  00000-0 -46698-3 0  9992,2 55420  70.0015  53.5528 0002621 248.6678 111.4202 14.98349425 64135,6950.133,96.106,573.819,570.176,0.0
55420.0,STARLINK-5604,PAYLOAD,2024-03-22 07:45:08,14.9835696,0.0002168,70.0016,53.2154,262.0557,98.0356,-0.00034172,-4.17e-05,0.0,0 STARLINK-5604,1 55420U 23014AF  24082.32300939 -.00004170  00000-0 -34172-3 0  9995,2 55420  70.0016  53.2154 0002168 262.0557  98.0356 14.98356960 64154,6950.11,96.105,573.481,570.468,0.0
55420.0,STARLINK-5604,PAYLOAD,2024-03-22 22:10:21,14.98310898,0.0002323,70.0025,51.7013,277.3056,82.7839,0.00025534,2.953e-05,0.0,0 STARLINK-5604,1 55420U 23014AF  24082.92386557  .00002953  00000-0  25534-3 0  9998,2 55420  70.0025  51.7013 0002323 277.3056  82.7839 14.98310898 65187,6950.252,96.108,573.732,570.502,0.0
55420.0,STARLINK-5604,PAYLOAD,2024-03-23 04:34:54,14.9831345,0.0003041,70.0004,51.0291,265.4411,94.6401,5.6257e-05,5.78e-06,0.0,0 STARLINK-5604,1 55420U 23014AF  24083.19091144  .00000578  00000-0  56257-4 0  9991,2 55420  70.0004  51.0291 0003041 265.4411  94.6401 14.98313450 64280,6950.244,96.108,574.223,569.996,0.0
55420.0,STARLINK-5604,PAYLOAD,2024-03-23 20:36:14,14.98328436,0.0003228,69.9998,49.345,268.6453,91.4336,1.1138e-05,4e-07,0.0,0 STARLINK-5604,1 55420U 23014AF  24083.85850677  .00000040  00000-0  11138-4 0  9991,2 55420  69.9998  49.3450 0003228 268.6453  91.4336 14.98328436 64387,6950.198,96.107,574.306,569.819,0.0
55420.0,STARLINK-5604,PAYLOAD,2024-03-23 22:12:22,14.98329483,0.0003242,70.0,49.178,269.8935,90.1853,3.865e-05,3.68e-06,0.0,0 STARLINK-5604,1 55420U 23014AF  24083.92526532  .00000368  00000-0  38650-4 0  9990,2 55420  70.0000  49.1780 0003242 269.8935  90.1853 14.98329483 65331,6950.194,96.107,574.313,569.806,0.0
55420.0,STARLINK-5604,PAYLOAD,2024-03-24 04:36:54,14.98335896,0.0002355,70.0012,48.5037,265.5592,94.5298,0.00017369,1.98e-05,0.0,0 STARLINK-5604,1 55420U 23014AF  24084.19229797  .00001980  00000-0  17369-3 0  9997,2 55420  70.0012  48.5037 0002355 265.5592  94.5298 14.98335896 64434,6950.175,96.107,573.676,570.403,0.0
55420.0,STARLINK-5604,PAYLOAD,2024-03-24 07:49:09,14.98345038,0.0002381,70.0012,48.1669,255.3977,104.6918,0.00020179,2.316e-05,0.0,0 STARLINK-5604,1 55420U 23014AF  24084.32580965  .00002316  00000-0  20179-3 0  9996,2 55420  70.0012  48.1669 0002381 255.3977 104.6918 14.98345038 64457,6950.146,96.106,573.666,570.357,0.0
55420.0,STARLINK-5604,PAYLOAD,2024-03-24 22:14:23,14.98325057,0.00029,70.001,46.653,269.5463,90.5364,5.1062e-05,5.16e-06,0.0,0 STARLINK-5604,1 55420U 23014AF  24084.92666546  .00000516  00000-0  51062-4 0  9998,2 55420  70.0010  46.6530 0002900 269.5463  90.5364 14.98325057 65480,6950.208,96.107,574.089,570.058,0.0
55420.0,STARLINK-5604,PAYLOAD,2024-03-25 04:38:56,14.98326129,0.0002677,70.0012,45.9801,266.86,93.2253,4.3951e-05,4.31e-06,0.0,0 STARLINK-5604,1 55420U 23014AF  24085.19370515  .00000431  00000-0  43951-4 0  9990,2 55420  70.0012  45.9801 0002677 266.8600  93.2253 14.98326129 64587,6950.205,96.107,573.93,570.209,0.0
55420.0,STARLINK-5604,PAYLOAD,2024-03-25 07:51:11,14.98331653,0.0002717,70.0011,45.6431,265.2217,94.8632,0.0001033,1.14e-05,0.0,0 STARLINK-5604,1 55420U 23014AF  24085.32721971  .00001140  00000-0  10330-3 0  9993,2 55420  70.0011  45.6431 0002717 265.2217  94.8632 14.98331653 64603,6950.188,96.107,573.941,570.164,0.0
55420.0,STARLINK-5604,PAYLOAD,2024-03-25 22:16:25,14.98327605,0.0002161,70.0006,44.1271,276.9464,83.1449,-0.00020617,-2.552e-05,0.0,0 STARLINK-5604,1 55420U 23014AF  24085.92807504 -.00002552  00000-0 -20617-3 0  9995,2 55420  70.0006  44.1271 0002161 276.9464  83.1449 14.98327605 65632,6950.2,96.107,573.567,570.563,0.0
55420.0,STARLINK-5604,PAYLOAD,2024-03-26 04:40:58,14.98315365,0.0002348,70.002,43.4551,263.8339,96.2552,-0.00025164,-3.093e-05,0.0,0 STARLINK-5604,1 55420U 23014AF  24086.19512479 -.00003093  00000-0 -25164-3 0  9992,2 55420  70.0020  43.4551 0002348 263.8339  96.2552 14.98315365 64734,6950.238,96.108,573.735,570.471,0.0
55420.0,STARLINK-5604,PAYLOAD,2024-03-26 14:17:46,14.98324784,0.0002926,70.0006,42.4443,268.1099,91.9725,-0.00010544,-1.351e-05,0.0,0 STARLINK-5604,1 55420U 23014AF  24086.59567564 -.00001351  00000-0 -10544-3 0  9992,2 55420  70.0006  42.4443 0002926 268.1099  91.9725 14.98324784 65730,6950.209,96.107,574.108,570.04,0.0
55420.0,STARLINK-5604,PAYLOAD,2024-03-26 22:18:29,14.98298052,0.0002584,70.0008,41.6024,261.6115,98.4751,-0.0003212,-3.92e-05,0.0,0 STARLINK-5604,1 55420U 23014AF  24086.92950360 -.00003920  00000-0 -32120-3 0  9997,2 55420  70.0008  41.6024 0002584 261.6115  98.4751 14.98298052 65789,6950.292,96.109,573.953,570.361,0.0
55420.0,STARLINK-5604,PAYLOAD,2024-03-27 14:19:47,14.9833958,0.0002863,70.0008,39.9189,272.5821,87.501,1.0686e-05,3.5e-07,0.0,0 STARLINK-5604,1 55420U 23014AF  24087.59707229  .00000035  00000-0  10686-4 0  9991,2 55420  70.0008  39.9189 0002863 272.5821  87.5010 14.98339580 65886,6950.163,96.106,574.018,570.038,0.0
55420.0,STARLINK-5604,PAYLOAD,2024-03-27 20:44:19,14.98326867,0.0002937,70.0009,39.2463,269.8617,90.2205,0.0003313,3.862e-05,0.0,0 STARLINK-5604,1 55420U 23014AF  24087.86411167  .00003862  00000-0  33130-3 0  9993,2 55420  70.0009  39.2463 0002937 269.8617  90.2205 14.98326867 64980,6950.203,96.107,574.109,570.026,0.0
55420.0,STARLINK-5604,PAYLOAD,2024-03-27 22:20:27,14.98328012,0.0002936,70.0008,39.0777,269.7654,90.3169,0.00034327,4.005e-05,0.0,0 STARLINK-5604,1 55420U 23014AF  24087.93087078  .00004005  00000-0  34327-3 0  9990,2 55420  70.0008  39.0777 0002936 269.7654  90.3169 14.98328012 65934,6950.199,96.107,574.105,570.023,0.0
55420.0,STARLINK-5604,PAYLOAD,2024-03-28 04:44:58,14.98337899,0.000293,70.0008,38.4042,265.692,94.3904,0.00034465,4.023e-05,0.0,0 STARLINK-5604,1 55420U 23014AF  24088.19790407  .00004023  00000-0  34465-3 0  9999,2 55420  70.0008  38.4042 0002930 265.6920  94.3904 14.98337899 65032,6950.168,96.106,574.07,569.997,0.0
